{"type": "FeatureCollection", "features": [ {"type": "Feature", "properties": {"norad_id": 28659, "name": "DIRECTV 8", "group": "intelsat", "lat": -0.019811242518929656, "lon": -63.38258005481798, "alt_km": 35775.563130481765, "timestamp": "2025-12-06T22:38:42.402387+00:00", "meta": {"OBJECT_NAME": "DIRECTV 8", "OBJECT_ID": "2005-019A", "EPOCH": "2025-12-06T10:44:58.297344", "MEAN_MOTION": 1.00271168, "ECCENTRICITY": 0.00032739, "INCLINATION": 0.0058, "RA_OF_ASC_NODE": 28.2318, "ARG_OF_PERICENTER": 228.664, "MEAN_ANOMALY": 220.7862, "EPHEMERIS_TYPE": 0, "CLASSIFICATION_TYPE": "U", "NORAD_CAT_ID": 28659, "ELEMENT_SET_NO": 999, "REV_AT_EPOCH": 7514, "BSTAR": 0, "MEAN_MOTION_DOT": 8e-08, "MEAN_MOTION_DDOT": 0}, "tle": {"line1": "1 28659U 05019A   25340.44789696  .00000008  00000+0  00000+0 0  9998", "line2": "2 28659   0.0058  28.2318 0003273 228.6640 220.7862  1.00271168 75142"}}, "geometry": {"type": "Point", "coordinates": [-63.38258005481798, -0.019811242518929656]}}, {"type": "Feature", "properties": {"norad_id": 28702, "name": "GALAXY 28 (G-28)", "group": "intelsat", "lat": -2.5608313321687493, "lon": -33.036874123252204, "alt_km": 35782.80201118455, "timestamp": "2025-12-06T22:38:42.402398+00:00", "meta": {"OBJECT_NAME": "GALAXY 28 (G-28)", "OBJECT_ID": "2005-022A", "EPOCH": "2025-12-06T11:01:56.472096", "MEAN_MOTION": 1.00271723, "ECCENTRICITY": 0.00026451, "INCLINATION": 2.8026, "RA_OF_ASC_NODE": 81.3552, "ARG_OF_PERICENTER": 174.6698, "MEAN_ANOMALY": 256.2716, "EPHEMERIS_TYPE": 0, "CLASSIFICATION_TYPE": "U", "NORAD_CAT_ID": 28702, "ELEMENT_SET_NO": 999, "REV_AT_EPOCH": 5004, "BSTAR": 0, "MEAN_MOTION_DOT": -1.81e-06, "MEAN_MOTION_DDOT": 0}, "tle": {"line1": "1 28702U 05022A   25340.45968139 -.00000181  00000+0  00000+0 0  9996", "line2": "2 28702   2.8026  81.3552 0002645 174.6698 256.2716  1.00271723 50042"}}, "geometry": {"type": "Point", "coordinates": [-33.036874123252204, -2.5608313321687493]}}, {"type": "Feature", "properties": {"norad_id": 29236, "name": "GALAXY 16 (G-16)", "group": "intelsat", "lat": 0.0009158133973585827, "lon": -43.33761624879479, "alt_km": 35778.83360391152, "timestamp": "2025-12-06T22:38:42.402410+00:00", "meta": {"OBJECT_NAME": "GALAXY 16 (G-16)", "OBJECT_ID": "2006-023A", "EPOCH": "2025-12-06T10:56:19.428288", "MEAN_MOTION": 1.00271146, "ECCENTRICITY": 0.00030155, "INCLINATION": 0.0048, "RA_OF_ASC_NODE": 275.3085, "ARG_OF_PERICENTER": 347.0055, "MEAN_ANOMALY": 238.2548, "EPHEMERIS_TYPE": 0, "CLASSIFICATION_TYPE": "U", "NORAD_CAT_ID": 29236, "ELEMENT_SET_NO": 999, "REV_AT_EPOCH": 7104, "BSTAR": 0, "MEAN_MOTION_DOT": -1.2e-06, "MEAN_MOTION_DDOT": 0}, "tle": {"line1": "1 29236U 06023A   25340.45578042 -.00000120  00000+0  00000+0 0  9994", "line2": "2 29236   0.0048 275.3085 0003015 347.0055 238.2548  1.00271146 71045"}}, "geometry": {"type": "Point", "coordinates": [-43.33761624879479, 0.0009158133973585827]}}, {"type": "Feature", "properties": {"norad_id": 29494, "name": "DIRECTV 9S", "group": "intelsat", "lat": -1.510862356701634, "lon": -45.54921418256997, "alt_km": 35779.247736208694, "timestamp": "2025-12-06T22:38:42.402428+00:00", "meta": {"OBJECT_NAME": "DIRECTV 9S", "OBJECT_ID": "2006-043A", "EPOCH": "2025-12-06T10:55:11.295840", "MEAN_MOTION": 1.00270526, "ECCENTRICITY": 0.00032552, "INCLINATION": 1.9232, "RA_OF_ASC_NODE": 83.2743, "ARG_OF_PERICENTER": 173.5807, "MEAN_ANOMALY": 241.2272, "EPHEMERIS_TYPE": 0, "CLASSIFICATION_TYPE": "U", "NORAD_CAT_ID": 29494, "ELEMENT_SET_NO": 999, "REV_AT_EPOCH": 4945, "BSTAR": 0, "MEAN_MOTION_DOT": -1.07e-06, "MEAN_MOTION_DDOT": 0}, "tle": {"line1": "1 29494U 06043A   25340.45499185 -.00000107  00000+0  00000+0 0  9997", "line2": "2 29494   1.9232  83.2743 0003255 173.5807 241.2272  1.00270526 49455"}}, "geometry": {"type": "Point", "coordinates": [-45.54921418256997, -1.510862356701634]}}, {"type": "Feature", "properties": {"norad_id": 31307, "name": "GALAXY 17 (G-17)", "group": "intelsat", "lat": -2.314295773224729, "lon": -29.30834245528637, "alt_km": 35785.981163168326, "timestamp": "2025-12-06T22:38:42.402439+00:00", "meta": {"OBJECT_NAME": "GALAXY 17 (G-17)", "OBJECT_ID": "2007-016B", "EPOCH": "2025-12-06T11:03:43.381728", "MEAN_MOTION": 1.00270084, "ECCENTRICITY": 0.0006069, "INCLINATION": 2.4834, "RA_OF_ASC_NODE": 82.3546, "ARG_OF_PERICENTER": 160.209, "MEAN_ANOMALY": 273.8633, "EPHEMERIS_TYPE": 0, "CLASSIFICATION_TYPE": "U", "NORAD_CAT_ID": 31307, "ELEMENT_SET_NO": 999, "REV_AT_EPOCH": 6787, "BSTAR": 0, "MEAN_MOTION_DOT": -2e-06, "MEAN_MOTION_DDOT": 0}, "tle": {"line1": "1 31307U 07016B   25340.46091877 -.00000200  00000+0  00000+0 0  9995", "line2": "2 31307   2.4834  82.3546 0006069 160.2090 273.8633  1.00270084 67876"}}, "geometry": {"type": "Point", "coordinates": [-29.30834245528637, -2.314295773224729]}}, {"type": "Feature", "properties": {"norad_id": 31862, "name": "DIRECTV 10", "group": "intelsat", "lat": 0.000576686459566315, "lon": -47.143398023438415, "alt_km": 35786.843240482674, "timestamp": "2025-12-06T22:38:42.402451+00:00", "meta": {"OBJECT_NAME": "DIRECTV 10", "OBJECT_ID": "2007-032A", "EPOCH": "2025-12-06T00:16:38.669952", "MEAN_MOTION": 1.00271476, "ECCENTRICITY": 3.614e-05, "INCLINATION": 0.0039, "RA_OF_ASC_NODE": 84.3473, "ARG_OF_PERICENTER": 112.2755, "MEAN_ANOMALY": 139.8068, "EPHEMERIS_TYPE": 0, "CLASSIFICATION_TYPE": "U", "NORAD_CAT_ID": 31862, "ELEMENT_SET_NO": 999, "REV_AT_EPOCH": 4365, "BSTAR": 0, "MEAN_MOTION_DOT": -9.4e-07, "MEAN_MOTION_DDOT": 0}, "tle": {"line1": "1 31862U 07032A   25340.01155868 -.00000094  00000+0  00000+0 0  9992", "line2": "2 31862   0.0039  84.3473 0000361 112.2755 139.8068  1.00271476 43657"}}, "geometry": {"type": "Point", "coordinates": [-47.143398023438415, 0.000576686459566315]}}, {"type": "Feature", "properties": {"norad_id": 32253, "name": "INTELSAT 11 (IS-11)", "group": "intelsat", "lat": -2.2157859761825085, "lon": -53.08889680607256, "alt_km": 36115.02660950161, "timestamp": "2025-12-06T22:38:42.402463+00:00", "meta": {"OBJECT_NAME": "INTELSAT 11 (IS-11)", "OBJECT_ID": "2007-044B", "EPOCH": "2025-12-06T10:52:48.588096", "MEAN_MOTION": 0.99047176, "ECCENTRICITY": 0.00092679, "INCLINATION": 3.063, "RA_OF_ASC_NODE": 81.0448, "ARG_OF_PERICENTER": 163.0694, "MEAN_ANOMALY": 247.9513, "EPHEMERIS_TYPE": 0, "CLASSIFICATION_TYPE": "U", "NORAD_CAT_ID": 32253, "ELEMENT_SET_NO": 999, "REV_AT_EPOCH": 6654, "BSTAR": 0, "MEAN_MOTION_DOT": 4.8e-07, "MEAN_MOTION_DDOT": 0}, "tle": {"line1": "1 32253U 07044B   25340.45334014  .00000048  00000+0  00000+0 0  9998", "line2": "2 32253   3.0630  81.0448 0009267 163.0694 247.9513  0.99047176 66542"}}, "geometry": {"type": "Point", "coordinates": [-53.08889680607256, -2.2157859761825085]}}, {"type": "Feature", "properties": {"norad_id": 32388, "name": "HORIZONS-2", "group": "intelsat", "lat": -2.065679901729774, "lon": -18.083907013357145, "alt_km": 35780.97562899452, "timestamp": "2025-12-06T22:38:42.402474+00:00", "meta": {"OBJECT_NAME": "HORIZONS-2", "OBJECT_ID": "2007-063B", "EPOCH": "2025-12-06T11:09:26.135712", "MEAN_MOTION": 1.00271167, "ECCENTRICITY": 0.00050786, "INCLINATION": 2.1044, "RA_OF_ASC_NODE": 83.0266, "ARG_OF_PERICENTER": 184.0397, "MEAN_ANOMALY": 262.0182, "EPHEMERIS_TYPE": 0, "CLASSIFICATION_TYPE": "U", "NORAD_CAT_ID": 32388, "ELEMENT_SET_NO": 999, "REV_AT_EPOCH": 6588, "BSTAR": 0, "MEAN_MOTION_DOT": -2.47e-06, "MEAN_MOTION_DDOT": 0}, "tle": {"line1": "1 32388U 07063B   25340.46488583 -.00000247  00000+0  00000+0 0  9992", "line2": "2 32388   2.1044  83.0266 0005078 184.0397 262.0182  1.00271167 65887"}}, "geometry": {"type": "Point", "coordinates": [-18.083907013357145, -2.065679901729774]}}, {"type": "Feature", "properties": {"norad_id": 32729, "name": "DIRECTV 11", "group": "intelsat", "lat": -0.0007296686007577088, "lon": -43.558451974190895, "alt_km": 35788.01950505873, "timestamp": "2025-12-06T22:38:42.402486+00:00", "meta": {"OBJECT_NAME": "DIRECTV 11", "OBJECT_ID": "2008-013A", "EPOCH": "2025-12-05T21:47:02.789088", "MEAN_MOTION": 1.0026924, "ECCENTRICITY": 4.793e-05, "INCLINATION": 0.0051, "RA_OF_ASC_NODE": 253.8201, "ARG_OF_PERICENTER": 295.7852, "MEAN_ANOMALY": 112.9152, "EPHEMERIS_TYPE": 0, "CLASSIFICATION_TYPE": "U", "NORAD_CAT_ID": 32729, "ELEMENT_SET_NO": 999, "REV_AT_EPOCH": 4365, "BSTAR": 0, "MEAN_MOTION_DOT": -1.16e-06, "MEAN_MOTION_DDOT": 0}, "tle": {"line1": "1 32729U 08013A   25339.90767117 -.00000116  00000+0  00000+0 0  9992", "line2": "2 32729   0.0051 253.8201 0000479 295.7852 112.9152  1.00269240 43653"}}, "geometry": {"type": "Point", "coordinates": [-43.558451974190895, -0.0007296686007577088]}}, {"type": "Feature", "properties": {"norad_id": 32951, "name": "GALAXY 18 (G-18)", "group": "intelsat", "lat": -0.02493323477186867, "lon": -67.34587339139624, "alt_km": 35775.14983715403, "timestamp": "2025-12-06T22:38:42.402498+00:00", "meta": {"OBJECT_NAME": "GALAXY 18 (G-18)", "OBJECT_ID": "2008-024A", "EPOCH": "2025-12-06T12:09:38.659680", "MEAN_MOTION": 1.00270023, "ECCENTRICITY": 0.00033256, "INCLINATION": 0.0154, "RA_OF_ASC_NODE": 44.8157, "ARG_OF_PERICENTER": 211.8447, "MEAN_ANOMALY": 238.2877, "EPHEMERIS_TYPE": 0, "CLASSIFICATION_TYPE": "U", "NORAD_CAT_ID": 32951, "ELEMENT_SET_NO": 999, "REV_AT_EPOCH": 4392, "BSTAR": 0, "MEAN_MOTION_DOT": 3.2e-07, "MEAN_MOTION_DDOT": 0}, "tle": {"line1": "1 32951U 08024A   25340.50669745  .00000032  00000+0  00000+0 0  9993", "line2": "2 32951   0.0154  44.8157 0003325 211.8447 238.2877  1.00270023 43921"}}, "geometry": {"type": "Point", "coordinates": [-67.34587339139624, -0.02493323477186867]}}]}